STARLINK-36094          
1 66851U 25281D   25365.32277383  .00131840  00000+0  22035-2 0  9990
2 66851  43.0019  10.9708 0000981 245.1982 114.8776 15.50731241  5715
STARLINK-35992          
1 66852U 25281E   25365.32243040  .00100952  00000+0  16991-2 0  9998
2 66852  42.9962  10.9691 0001091 165.2553 194.8339 15.50668225  5715
STARLINK-35986          
1 66853U 25281F   25365.32208343  .00101970  00000+0  17153-2 0  9998
2 66853  42.9967  10.9657 0000904 168.6387 191.4494 15.50678841  5717
STARLINK-36087          
1 66854U 25281G   25365.32173973  .00129612  00000+0  21764-2 0  9995
2 66854  42.9994  10.9629 0000906 253.7900 106.2860 15.50609089  5715
STARLINK-36090          
1 66855U 25281H   25365.32139832  .00107554  00000+0  18074-2 0  9993
2 66855  42.9977  10.9601 0001461 125.8695 234.2301 15.50682655  5716
STARLINK-36072          
1 66856U 25281J   25365.32105410  .00102236  00000+0  17202-2 0  9993
2 66856  42.9975  10.9570 0000876 214.2715 145.8089 15.50670317  5717
STARLINK-36083          
1 66857U 25281K   25364.41890155  .00112056  00000+0  18867-2 0  9999
2 66857  43.0023  16.2298 0002135 281.5579  78.5041 15.50606977  5570
STARLINK-35118          
1 66858U 25281L   25364.41855766  .00122797  00000+0  20635-2 0  9998
2 66858  43.0022  16.2247 0002209 278.9026  81.1584 15.50615586  5571
STARLINK-35646          
1 66859U 25281M   25364.41821520  .00110742  00000+0  18649-2 0  9999
2 66859  43.0018  16.2247 0002249 281.8895  78.1713 15.50608178  5577
STARLINK-35987          
1 66860U 25281N   25365.06064987  .00114014  00000+0  19179-2 0  9994
2 66860  42.9966  12.4433 0000383 199.8571 160.2274 15.50624867  5679
STARLINK-35991          
1 66861U 25281P   25364.58335647 -.00096008  00000+0 -16471-2 0  9991
2 66861  43.0005  15.2494 0001190 270.7438 296.0618 15.50642872  4251
STARLINK-35974          
1 66862U 25281Q   25365.31968061  .00136969  00000+0  22967-2 0  9992
2 66862  43.0000  10.9466 0000606 224.2355 135.8457 15.50618096  5715
